CCSDS_OMM_VERS = 2.0
CREATION_DATE  = 
ORIGINATOR     = 

OBJECT_NAME    = ATLAS CENTAUR R/B
OBJECT_ID      = 1972-065B
CENTER_NAME    = EARTH
REF_FRAME      = TEME
TIME_SYSTEM    = UTC
MEAN_ELEMENT_THEORY = SGP/SGP4

EPOCH          = 2025-11-25T00:30:22.329792
MEAN_MOTION    = 14.77342057
ECCENTRICITY   = .0034195
INCLINATION    = 35.0004
RA_OF_ASC_NODE = 198.9863
ARG_OF_PERICENTER = 211.0184
MEAN_ANOMALY   = 148.8496

EPHEMERIS_TYPE = 0
CLASSIFICATION_TYPE = U
NORAD_CAT_ID   = 6155
ELEMENT_SET_NO = 999
REV_AT_EPOCH   = 82577
BSTAR          = .20145E-3
MEAN_MOTION_DOT = .1446E-4
MEAN_MOTION_DDOT = 0

CCSDS_OMM_VERS = 2.0
CREATION_DATE  = 
ORIGINATOR     = 

OBJECT_NAME    = SL-8 R/B
OBJECT_ID      = 1975-112B
CENTER_NAME    = EARTH
REF_FRAME      = TEME
TIME_SYSTEM    = UTC
MEAN_ELEMENT_THEORY = SGP/SGP4

EPOCH          = 2025-11-25T08:53:22.063200
MEAN_MOTION    = 14.38129327
ECCENTRICITY   = .0016181
INCLINATION    = 74.0602
RA_OF_ASC_NODE = 210.8049
ARG_OF_PERICENTER = 324.5037
MEAN_ANOMALY   = 35.5039

EPHEMERIS_TYPE = 0
CLASSIFICATION_TYPE = U
NORAD_CAT_ID   = 8459
ELEMENT_SET_NO = 999
REV_AT_EPOCH   = 61687
BSTAR          = .12049E-3
MEAN_MOTION_DOT = .34E-5
MEAN_MOTION_DDOT = 0

CCSDS_OMM_VERS = 2.0
CREATION_DATE  = 
ORIGINATOR     = 

OBJECT_NAME    = SL-3 R/B
OBJECT_ID      = 1977-057B
CENTER_NAME    = EARTH
REF_FRAME      = TEME
TIME_SYSTEM    = UTC
MEAN_ELEMENT_THEORY = SGP/SGP4

EPOCH          = 2025-11-25T10:29:04.150176
MEAN_MOTION    = 15.42372528
ECCENTRICITY   = .0006676
INCLINATION    = 97.5687
RA_OF_ASC_NODE = 132.0996
ARG_OF_PERICENTER = 305.8698
MEAN_ANOMALY   = 54.1928

EPHEMERIS_TYPE = 0
CLASSIFICATION_TYPE = U
NORAD_CAT_ID   = 10114
ELEMENT_SET_NO = 999
REV_AT_EPOCH   = 65224
BSTAR          = .33888E-3
MEAN_MOTION_DOT = .14554E-3
MEAN_MOTION_DDOT = 0

CCSDS_OMM_VERS = 2.0
CREATION_DATE  = 
ORIGINATOR     = 

OBJECT_NAME    = SEASAT 1
OBJECT_ID      = 1978-064A
CENTER_NAME    = EARTH
REF_FRAME      = TEME
TIME_SYSTEM    = UTC
MEAN_ELEMENT_THEORY = SGP/SGP4

EPOCH          = 2025-11-25T10:58:08.999040
MEAN_MOTION    = 14.46032311
ECCENTRICITY   = .0002059
INCLINATION    = 108.0089
RA_OF_ASC_NODE = 266.7788
ARG_OF_PERICENTER = 251.7078
MEAN_ANOMALY   = 108.3844

EPHEMERIS_TYPE = 0
CLASSIFICATION_TYPE = U
NORAD_CAT_ID   = 10967
ELEMENT_SET_NO = 999
REV_AT_EPOCH   = 49144
BSTAR          = .18712E-3
MEAN_MOTION_DOT = .531E-5
MEAN_MOTION_DDOT = 0

CCSDS_OMM_VERS = 2.0
CREATION_DATE  = 
ORIGINATOR     = 

OBJECT_NAME    = SL-14 R/B
OBJECT_ID      = 1979-011B
CENTER_NAME    = EARTH
REF_FRAME      = TEME
TIME_SYSTEM    = UTC
MEAN_ELEMENT_THEORY = SGP/SGP4

EPOCH          = 2025-11-25T08:21:13.659264
MEAN_MOTION    = 14.91739776
ECCENTRICITY   = .0017343
INCLINATION    = 82.5250
RA_OF_ASC_NODE = 195.5370
ARG_OF_PERICENTER = 49.6194
MEAN_ANOMALY   = 310.6536

EPHEMERIS_TYPE = 0
CLASSIFICATION_TYPE = U
NORAD_CAT_ID   = 11267
ELEMENT_SET_NO = 999
REV_AT_EPOCH   = 51322
BSTAR          = .71653E-4
MEAN_MOTION_DOT = .749E-5
MEAN_MOTION_DDOT = 0

CCSDS_OMM_VERS = 2.0
CREATION_DATE  = 
ORIGINATOR     = 

OBJECT_NAME    = SL-8 R/B
OBJECT_ID      = 1979-089B
CENTER_NAME    = EARTH
REF_FRAME      = TEME
TIME_SYSTEM    = UTC
MEAN_ELEMENT_THEORY = SGP/SGP4

EPOCH          = 2025-11-25T08:33:46.643040
MEAN_MOTION    = 14.42265708
ECCENTRICITY   = .0014635
INCLINATION    = 74.0683
RA_OF_ASC_NODE = 284.1509
ARG_OF_PERICENTER = 125.6528
MEAN_ANOMALY   = 234.5993

EPHEMERIS_TYPE = 0
CLASSIFICATION_TYPE = U
NORAD_CAT_ID   = 11574
ELEMENT_SET_NO = 999
REV_AT_EPOCH   = 42106
BSTAR          = .12559E-3
MEAN_MOTION_DOT = .388E-5
MEAN_MOTION_DDOT = 0

CCSDS_OMM_VERS = 2.0
CREATION_DATE  = 
ORIGINATOR     = 

OBJECT_NAME    = SL-14 R/B
OBJECT_ID      = 1980-005B
CENTER_NAME    = EARTH
REF_FRAME      = TEME
TIME_SYSTEM    = UTC
MEAN_ELEMENT_THEORY = SGP/SGP4

EPOCH          = 2025-11-25T11:51:19.046016
MEAN_MOTION    = 14.90760365
ECCENTRICITY   = .001664
INCLINATION    = 82.5161
RA_OF_ASC_NODE = 46.0528
ARG_OF_PERICENTER = 146.5649
MEAN_ANOMALY   = 213.6625

EPHEMERIS_TYPE = 0
CLASSIFICATION_TYPE = U
NORAD_CAT_ID   = 11672
ELEMENT_SET_NO = 999
REV_AT_EPOCH   = 46096
BSTAR          = .80438E-4
MEAN_MOTION_DOT = .817E-5
MEAN_MOTION_DDOT = 0

CCSDS_OMM_VERS = 2.0
CREATION_DATE  = 
ORIGINATOR     = 

OBJECT_NAME    = SL-8 R/B
OBJECT_ID      = 1981-003B
CENTER_NAME    = EARTH
REF_FRAME      = TEME
TIME_SYSTEM    = UTC
MEAN_ELEMENT_THEORY = SGP/SGP4

EPOCH          = 2025-11-25T09:39:55.858176
MEAN_MOTION    = 15.06206770
ECCENTRICITY   = .0281788
INCLINATION    = 82.9307
RA_OF_ASC_NODE = 26.1512
ARG_OF_PERICENTER = 180.1891
MEAN_ANOMALY   = 179.9284

EPHEMERIS_TYPE = 0
CLASSIFICATION_TYPE = U
NORAD_CAT_ID   = 12139
ELEMENT_SET_NO = 999
REV_AT_EPOCH   = 29895
BSTAR          = .69293E-3
MEAN_MOTION_DOT = .25695E-3
MEAN_MOTION_DDOT = 0

CCSDS_OMM_VERS = 2.0
CREATION_DATE  = 
ORIGINATOR     = 

OBJECT_NAME    = SL-3 R/B
OBJECT_ID      = 1981-046B
CENTER_NAME    = EARTH
REF_FRAME      = TEME
TIME_SYSTEM    = UTC
MEAN_ELEMENT_THEORY = SGP/SGP4

EPOCH          = 2025-11-25T09:41:01.219776
MEAN_MOTION    = 15.39096714
ECCENTRICITY   = .0020082
INCLINATION    = 81.2338
RA_OF_ASC_NODE = 54.6663
ARG_OF_PERICENTER = 24.6774
MEAN_ANOMALY   = 335.5423

EPHEMERIS_TYPE = 0
CLASSIFICATION_TYPE = U
NORAD_CAT_ID   = 12465
ELEMENT_SET_NO = 999
REV_AT_EPOCH   = 42237
BSTAR          = .36893E-3
MEAN_MOTION_DOT = .14426E-3
MEAN_MOTION_DDOT = 0

CCSDS_OMM_VERS = 2.0
CREATION_DATE  = 
ORIGINATOR     = 

OBJECT_NAME    = SL-3 R/B
OBJECT_ID      = 1981-103B
CENTER_NAME    = EARTH
REF_FRAME      = TEME
TIME_SYSTEM    = UTC
MEAN_ELEMENT_THEORY = SGP/SGP4

EPOCH          = 2025-11-25T11:30:05.656896
MEAN_MOTION    = 15.19928515
ECCENTRICITY   = .00115
INCLINATION    = 81.1593
RA_OF_ASC_NODE = 335.5658
ARG_OF_PERICENTER = 280.7298
MEAN_ANOMALY   = 79.2637

EPHEMERIS_TYPE = 0
CLASSIFICATION_TYPE = U
NORAD_CAT_ID   = 12904
ELEMENT_SET_NO = 999
REV_AT_EPOCH   = 95739
BSTAR          = .37126E-3
MEAN_MOTION_DOT = .8017E-4
MEAN_MOTION_DDOT = 0

CCSDS_OMM_VERS = 2.0
CREATION_DATE  = 
ORIGINATOR     = 

OBJECT_NAME    = SL-3 R/B
OBJECT_ID      = 1982-013B
CENTER_NAME    = EARTH
REF_FRAME      = TEME
TIME_SYSTEM    = UTC
MEAN_ELEMENT_THEORY = SGP/SGP4

EPOCH          = 2025-11-25T09:45:51.864192
MEAN_MOTION    = 15.20857666
ECCENTRICITY   = .0023022
INCLINATION    = 81.1746
RA_OF_ASC_NODE = 282.8946
ARG_OF_PERICENTER = 167.1483
MEAN_ANOMALY   = 193.0340

EPHEMERIS_TYPE = 0
CLASSIFICATION_TYPE = U
NORAD_CAT_ID   = 13068
ELEMENT_SET_NO = 999
REV_AT_EPOCH   = 38849
BSTAR          = .26032E-3
MEAN_MOTION_DOT = .5814E-4
MEAN_MOTION_DDOT = 0

CCSDS_OMM_VERS = 2.0
CREATION_DATE  = 
ORIGINATOR     = 

OBJECT_NAME    = SL-3 R/B
OBJECT_ID      = 1982-039B
CENTER_NAME    = EARTH
REF_FRAME      = TEME
TIME_SYSTEM    = UTC
MEAN_ELEMENT_THEORY = SGP/SGP4

EPOCH          = 2025-11-25T11:17:07.784736
MEAN_MOTION    = 15.09376490
ECCENTRICITY   = .0031072
INCLINATION    = 81.1754
RA_OF_ASC_NODE = 335.9596
ARG_OF_PERICENTER = 310.1055
MEAN_ANOMALY   = 49.7447

EPHEMERIS_TYPE = 0
CLASSIFICATION_TYPE = U
NORAD_CAT_ID   = 13154
ELEMENT_SET_NO = 999
REV_AT_EPOCH   = 36591
BSTAR          = .2196E-3
MEAN_MOTION_DOT = .3568E-4
MEAN_MOTION_DDOT = 0

