ATLAS CENTAUR R/B       
1 06155U 72065B   25329.02109179  .00001446  00000+0  20145-3 0  9996
2 06155  35.0004 198.9863 0034195 211.0184 148.8496 14.77342057825773
SL-8 R/B                
1 08459U 75112B   25329.37039425  .00000340  00000+0  12049-3 0  9991
2 08459  74.0602 210.8049 0016181 324.5037  35.5039 14.38129327616875
SL-3 R/B                
1 10114U 77057B   25329.43685359  .00014554  00000+0  33888-3 0  9998
2 10114  97.5687 132.0996 0006676 305.8698  54.1928 15.42372528652242
SEASAT 1                
1 10967U 78064A   25329.45704860  .00000531  00000+0  18712-3 0  9993
2 10967 108.0089 266.7788 0002059 251.7078 108.3844 14.46032311491446
SL-14 R/B               
1 11267U 79011B   25329.34807476  .00000749  00000+0  71653-4 0  9990
2 11267  82.5250 195.5370 0017343  49.6194 310.6536 14.91739776513223
SL-8 R/B                
1 11574U 79089B   25329.35678985  .00000388  00000+0  12559-3 0  9996
2 11574  74.0683 284.1509 0014635 125.6528 234.5993 14.42265708421062
SL-14 R/B               
1 11672U 80005B   25329.49397044  .00000817  00000+0  80438-4 0  9993
2 11672  82.5161  46.0528 0016640 146.5649 213.6625 14.90760365460960
SL-8 R/B                
1 12139U 81003B   25329.40272984  .00025695  00000+0  69293-3 0  9993
2 12139  82.9307  26.1512 0281788 180.1891 179.9284 15.06206770298953
SL-3 R/B                
1 12465U 81046B   25329.40348634  .00014426  00000+0  36893-3 0  9998
2 12465  81.2338  54.6663 0020082  24.6774 335.5423 15.39096714422375
SL-3 R/B                
1 12904U 81103B   25329.47923214  .00008017  00000+0  37126-3 0  9999
2 12904  81.1593 335.5658 0011500 280.7298  79.2637 15.19928515957396
SL-3 R/B                
1 13068U 82013B   25329.40685028  .00005814  00000+0  26032-3 0  9999
2 13068  81.1746 282.8946 0023022 167.1483 193.0340 15.20857666388493
SL-3 R/B                
1 13154U 82039B   25329.47022899  .00003568  00000+0  21960-3 0  9990
2 13154  81.1754 335.9596 0031072 310.1055  49.7447 15.09376490365913
